NORAD_CAT_ID,OBJECT_NAME,OBJECT_TYPE,EPOCH,MEAN_MOTION,ECCENTRICITY,INCLINATION,RA_OF_ASC_NODE,ARG_OF_PERICENTER,MEAN_ANOMALY,BSTAR,MEAN_MOTION_DOT,MEAN_MOTION_DDOT,TLE_LINE0,TLE_LINE1,TLE_LINE2,SEMIMAJOR_AXIS,PERIOD,APOGEE,PERIGEE,DECAYED
50182.0,STARLINK-3277,PAYLOAD,2024-07-09 03:59:20,15.08841416,0.0001317,53.2165,100.7375,94.4575,265.6567,0.00012847,1.757e-05,0.0,0 STARLINK-3277,1 50182U 21125AC  24191.16620896  .00001757  00000-0  12847-3 0  9997,2 50182  53.2165 100.7375 0001317  94.4575 265.6567 15.08841416144250,6917.876,95.437,540.652,538.83,0.0
50182.0,STARLINK-3277,PAYLOAD,2024-07-09 05:34:43,15.08844835,0.0001322,53.2165,100.4401,95.0003,265.114,0.00016315,2.31e-05,0.0,0 STARLINK-3277,1 50182U 21125AC  24191.23244702  .00002310  00000-0  16315-3 0  9993,2 50182  53.2165 100.4401 0001322  95.0003 265.1140 15.08844835144784,6917.866,95.437,540.645,538.816,0.0
50182.0,STARLINK-3277,PAYLOAD,2024-07-09 21:28:35,15.08831226,0.000138,53.2166,97.4672,100.2636,259.8512,-1.7554e-05,-5.67e-06,0.0,0 STARLINK-3277,1 50182U 21125AC  24191.89485435 -.00000567  00000-0 -17554-4 0  9996,2 50182  53.2166  97.4672 0001380 100.2636 259.8512 15.08831226144362,6917.907,95.438,540.727,538.818,0.0
50182.0,STARLINK-3277,PAYLOAD,2024-07-10 10:11:40,15.08841427,0.0001353,53.2177,95.0889,102.222,257.8924,5.0895e-05,5.22e-06,0.0,0 STARLINK-3277,1 50182U 21125AC  24192.42477000  .00000522  00000-0  50895-4 0  9999,2 50182  53.2177  95.0889 0001353 102.2220 257.8924 15.08841427144447,6917.876,95.437,540.677,538.805,0.0
50182.0,STARLINK-3277,PAYLOAD,2024-07-10 21:19:22,15.08829206,0.000142,53.2186,93.0085,103.3745,256.7405,4.353e-05,4.05e-06,0.0,0 STARLINK-3277,1 50182U 21125AC  24192.88845969  .00000405  00000-0  43530-4 0  9990,2 50182  53.2186  93.0085 0001420 103.3745 256.7405 15.08829206144513,6917.913,95.438,540.761,538.796,0.0
50182.0,STARLINK-3277,PAYLOAD,2024-07-10 22:54:46,15.08829386,0.0001303,53.2182,92.7106,105.2807,254.8329,4.0545e-05,3.57e-06,0.0,0 STARLINK-3277,1 50182U 21125AC  24192.95469963  .00000357  00000-0  40545-4 0  9993,2 50182  53.2182  92.7106 0001303 105.2807 254.8329 15.08829386145041,6917.913,95.438,540.679,538.876,0.0
50182.0,STARLINK-3277,PAYLOAD,2024-07-11 03:40:54,15.08837198,0.000142,53.2178,91.8165,110.9268,249.1876,7.5698e-05,9.17e-06,0.0,0 STARLINK-3277,1 50182U 21125AC  24193.15341420  .00000917  00000-0  75698-4 0  9992,2 50182  53.2178  91.8165 0001420 110.9268 249.1876 15.08837198144554,6917.889,95.438,540.736,538.772,0.0
50182.0,STARLINK-3277,PAYLOAD,2024-07-11 16:23:59,15.08844361,0.0001636,53.2187,89.4382,95.4386,264.6793,4.6587e-05,4.54e-06,0.0,0 STARLINK-3277,1 50182U 21125AC  24193.68333176  .00000454  00000-0  46587-4 0  9990,2 50182  53.2187  89.4382 0001636  95.4386 264.6793 15.08844361145152,6917.867,95.437,540.864,538.6,0.0
50182.0,STARLINK-3277,PAYLOAD,2024-07-12 00:20:56,15.08828789,0.0001204,53.2188,87.9512,104.0009,256.1117,0.00021903,3.199e-05,0.0,0 STARLINK-3277,1 50182U 21125AC  24194.01454004  .00003199  00000-0  21903-3 0  9995,2 50182  53.2188  87.9512 0001204 104.0009 256.1117 15.08828789144680,6917.915,95.438,540.613,538.947,0.0
50182.0,STARLINK-3277,PAYLOAD,2024-07-12 09:53:13,15.08852891,0.0001254,53.2175,86.1639,78.0294,282.0838,0.00018005,2.58e-05,0.0,0 STARLINK-3277,1 50182U 21125AC  24194.41196610  .00002580  00000-0  18005-3 0  9997,2 50182  53.2175  86.1639 0001254  78.0294 282.0838 15.08852891144744,6917.841,95.437,540.573,538.838,0.0
50182.0,STARLINK-3277,PAYLOAD,2024-07-12 21:00:57,15.08833199,0.0001672,53.2181,84.0862,92.8558,267.2625,2.4812e-05,1.07e-06,0.0,0 STARLINK-3277,1 50182U 21125AC  24194.87566015  .00000107  00000-0  24812-4 0  9994,2 50182  53.2181  84.0862 0001672  92.8558 267.2625 15.08833199144814,6917.901,95.438,540.923,538.61,0.0
50182.0,STARLINK-3277,PAYLOAD,2024-07-12 22:36:20,15.08834862,0.0001532,53.2174,83.7876,82.4136,277.703,-2.1259e-05,-6.26e-06,0.0,0 STARLINK-3277,1 50182U 21125AC  24194.94189976 -.00000626  00000-0 -21259-4 0  9999,2 50182  53.2174  83.7876 0001532  82.4136 277.7030 15.08834862145342,6917.896,95.438,540.821,538.701,0.0
50182.0,STARLINK-3277,PAYLOAD,2024-07-13 09:44:01,15.08850113,0.0001463,53.2181,81.7045,78.4358,281.6799,0.00020207,2.93e-05,0.0,0 STARLINK-3277,1 50182U 21125AC  24195.40557242  .00002930  00000-0  20207-3 0  9995,2 50182  53.2181  81.7045 0001463  78.4358 281.6799 15.08850113144892,6917.849,95.437,540.727,538.702,0.0
50182.0,STARLINK-3277,PAYLOAD,2024-07-13 20:51:43,15.08841533,0.0001789,53.2174,79.6224,88.0407,272.079,7.5722e-05,9.17e-06,0.0,0 STARLINK-3277,1 50182U 21125AC  24195.86925717  .00000917  00000-0  75722-4 0  9997,2 50182  53.2174  79.6224 0001789  88.0407 272.0790 15.08841533144961,6917.876,95.437,540.978,538.503,0.0
50182.0,STARLINK-3277,PAYLOAD,2024-07-13 22:27:07,15.08837096,9.19e-05,53.2165,79.3228,81.3913,278.7183,-2.2328e-05,-6.43e-06,0.0,0 STARLINK-3277,1 50182U 21125AC  24195.93549771 -.00000643  00000-0 -22328-4 0  9999,2 50182  53.2165  79.3228 0000919  81.3913 278.7183 15.08837096145491,6917.889,95.438,540.39,539.119,0.0
50182.0,STARLINK-3277,PAYLOAD,2024-07-14 09:34:48,15.08857063,0.0001337,53.2155,77.2467,78.4861,281.6281,0.00024889,3.677e-05,0.0,0 STARLINK-3277,1 50182U 21125AC  24196.39916828  .00003677  00000-0  24889-3 0  9992,2 50182  53.2155  77.2467 0001337  78.4861 281.6281 15.08857063145045,6917.828,95.436,540.618,538.768,0.0
50182.0,STARLINK-3277,PAYLOAD,2024-07-14 20:42:30,15.08840872,0.0001954,53.2162,75.1645,88.2131,271.9085,0.00013369,1.84e-05,0.0,0 STARLINK-3277,1 50182U 21125AC  24196.86285784  .00001840  00000-0  13369-3 0  9995,2 50182  53.2162  75.1645 0001954  88.2131 271.9085 15.08840872145114,6917.878,95.437,541.094,538.391,0.0
50182.0,STARLINK-3277,PAYLOAD,2024-07-14 22:17:53,15.08842626,0.0001647,53.218,74.8667,85.3339,274.7842,0.00012794,1.749e-05,0.0,0 STARLINK-3277,1 50182U 21125AC  24196.92909659  .00001749  00000-0  12794-3 0  9995,2 50182  53.2180  74.8667 0001647  85.3339 274.7842 15.08842626145640,6917.872,95.437,540.877,538.598,0.0
50182.0,STARLINK-3277,PAYLOAD,2024-07-15 09:25:35,15.08853694,0.0001463,53.2166,72.7833,100.8881,259.2276,0.00031572,4.742e-05,0.0,0 STARLINK-3277,1 50182U 21125AC  24197.39277214  .00004742  00000-0  31572-3 0  9993,2 50182  53.2166  72.7833 0001463 100.8881 259.2276 15.08853694145193,6917.839,95.437,540.716,538.691,0.0
50182.0,STARLINK-3277,PAYLOAD,2024-07-15 20:33:18,15.08836614,0.0001562,53.2156,70.704,85.6531,274.464,5.5582e-05,5.97e-06,0.0,0 STARLINK-3277,1 50182U 21125AC  24197.85645873  .00000597  00000-0  55582-4 0  9996,2 50182  53.2156  70.7040 0001562  85.6531 274.4640 15.08836614145267,6917.891,95.438,540.836,538.675,0.0
50182.0,STARLINK-3277,PAYLOAD,2024-07-16 21:59:28,15.08851942,0.0001346,53.2168,65.9446,85.1562,274.9584,0.00074643,0.00011615,0.0,0 STARLINK-3277,1 50182U 21125AC  24198.91629749  .00011615  00000-0  74643-3 0  9999,2 50182  53.2168  65.9446 0001346  85.1562 274.9584 15.08851942145943,6917.844,95.437,540.64,538.778,0.0
50182.0,STARLINK-3277,PAYLOAD,2024-07-17 20:14:52,15.08836988,0.0001526,53.2185,61.7813,111.1033,249.0123,7.2935e-06,-1.72e-06,0.0,0 STARLINK-3277,1 50182U 21125AC  24199.84365905 -.00000172  00000-0  72935-5 0  9994,2 50182  53.2185  61.7813 0001526 111.1033 249.0123 15.08836988145560,6917.89,95.438,540.81,538.699,0.0
50182.0,STARLINK-3277,PAYLOAD,2024-07-17 21:50:15,15.08837735,0.0001188,53.2171,61.4858,99.2298,260.8828,4.4915e-05,4.27e-06,0.0,0 STARLINK-3277,1 50182U 21125AC  24199.90990052  .00000427  00000-0  44915-4 0  9996,2 50182  53.2171  61.4858 0001188  99.2298 260.8828 15.08837735146097,6917.887,95.438,540.574,538.93,0.0
50182.0,STARLINK-3277,PAYLOAD,2024-07-18 07:22:33,15.0884563,0.0001108,53.217,59.7042,95.2859,264.826,0.00015942,2.251e-05,0.0,0 STARLINK-3277,1 50182U 21125AC  24200.30733766  .00002251  00000-0  15942-3 0  9994,2 50182  53.2170  59.7042 0001108  95.2859 264.8260 15.08845630146156,6917.863,95.437,540.495,538.962,0.0
50182.0,STARLINK-3277,PAYLOAD,2024-07-18 21:41:02,15.08833638,0.0001722,53.2182,57.0331,117.1341,242.9827,2.4383e-05,1e-06,0.0,0 STARLINK-3277,1 50182U 21125AC  24200.90350631  .00000100  00000-0  24383-4 0  9997,2 50182  53.2182  57.0331 0001722 117.1341 242.9827 15.08833638146244,6917.9,95.438,540.956,538.574,0.0
50182.0,STARLINK-3277,PAYLOAD,2024-07-19 07:13:21,15.08843046,0.0001548,53.2183,55.2488,111.431,248.6848,0.00015348,2.156e-05,0.0,0 STARLINK-3277,1 50182U 21125AC  24201.30094280  .00002156  00000-0  15348-3 0  9990,2 50182  53.2183  55.2488 0001548 111.4310 248.6848 15.08843046145785,6917.871,95.437,540.807,538.665,0.0
50182.0,STARLINK-3277,PAYLOAD,2024-07-19 21:31:49,15.08838789,0.0001258,53.2178,52.5691,116.7336,243.3785,0.00011443,1.534e-05,0.0,0 STARLINK-3277,1 50182U 21125AC  24201.89710587  .00001534  00000-0  11443-3 0  9990,2 50182  53.2178  52.5691 0001258 116.7336 243.3785 15.08838789145879,6917.884,95.438,540.619,538.879,0.0
50182.0,STARLINK-3277,PAYLOAD,2024-07-20 07:04:08,15.08850645,0.0001034,53.2168,50.7829,87.8585,272.2526,0.00023805,3.504e-05,0.0,0 STARLINK-3277,1 50182U 21125AC  24202.29453967  .00003504  00000-0  23805-3 0  9995,2 50182  53.2168  50.7829 0001034  87.8585 272.2526 15.08850645145933,6917.848,95.437,540.428,538.998,0.0
50182.0,STARLINK-3277,PAYLOAD,2024-07-20 21:22:37,15.08841756,0.0001211,53.2175,48.1054,87.1993,272.9138,7.4848e-05,9.04e-06,0.0,0 STARLINK-3277,1 50182U 21125AC  24202.89070693  .00000904  00000-0  74848-4 0  9997,2 50182  53.2175  48.1054 0001211  87.1993 272.9138 15.08841756146025,6917.875,95.437,540.578,538.902,0.0
50182.0,STARLINK-3277,PAYLOAD,2024-07-21 06:54:55,15.08854659,0.00013,53.2182,46.3192,82.9711,277.1429,0.00023472,3.451e-05,0.0,0 STARLINK-3277,1 50182U 21125AC  24203.28813941  .00003451  00000-0  23472-3 0  9998,2 50182  53.2182  46.3192 0001300  82.9711 277.1429 15.08854659146088,6917.836,95.437,540.6,538.801,0.0
